NORAD_CAT_ID,OBJECT_NAME,OBJECT_TYPE,EPOCH,MEAN_MOTION,ECCENTRICITY,INCLINATION,RA_OF_ASC_NODE,ARG_OF_PERICENTER,MEAN_ANOMALY,BSTAR,MEAN_MOTION_DOT,MEAN_MOTION_DDOT,TLE_LINE0,TLE_LINE1,TLE_LINE2,SEMIMAJOR_AXIS,PERIOD,APOGEE,PERIGEE,DECAYED
50202.0,STARLINK-3256,PAYLOAD,2022-08-25 20:12:22,15.08835032,0.0001798,53.2161,278.4453,47.8103,312.3042,-2.4278e-05,-6.74e-06,0.0,0 STARLINK-3256,1 50202U 21125AY  22237.84192540 -.00000674  00000-0 -24278-4 0  9995,2 50202  53.2161 278.4453 0001798  47.8103 312.3042 15.08835032 41702,6917.896,95.438,541.004,538.5169999999998,0.0
50202.0,STARLINK-3256,PAYLOAD,2022-08-26 12:06:13,15.08836969,0.0001768,53.2161,275.4705,50.5922,309.5227,-2.8944e-05,-7.49e-06,0.0,0 STARLINK-3256,1 50202U 21125AY  22238.50432497 -.00000749  00000-0 -28944-4 0  9994,2 50202  53.2161 275.4705 0001768  50.5922 309.5227 15.08836969 41800,6917.89,95.438,540.9780000000002,538.5319999999998,0.0
50202.0,STARLINK-3256,PAYLOAD,2022-08-27 11:57:00,15.08835089,0.0001831,53.216,271.0106,48.1629,311.9519,8.774799999999999e-05,1.109e-05,0.0,0 STARLINK-3256,1 50202U 21125AY  22239.49792407  .00001109  00000-0  87748-4 0  9999,2 50202  53.2160 271.0106 0001831  48.1629 311.9519 15.08835089 41953,6917.895,95.438,541.0269999999998,538.494,0.0
50202.0,STARLINK-3256,PAYLOAD,2022-08-28 05:26:14,15.08840815,0.0001871,53.2158,267.7397,47.9915,312.1236,9.6675e-05,1.251e-05,0.0,0 STARLINK-3256,1 50202U 21125AY  22240.22656173  .00001251  00000-0  96675-4 0  9998,2 50202  53.2158 267.7397 0001871  47.9915 312.1236 15.08840815 41584,6917.878000000002,95.438,541.0369999999998,538.4490000000002,0.0
50202.0,STARLINK-3256,PAYLOAD,2022-08-28 10:12:24,15.08842948,0.0001901,53.2157,266.8477,47.0103,313.1048,9.6647e-05,1.25e-05,0.0,0 STARLINK-3256,1 50202U 21125AY  22240.42528075  .00001250  00000-0  96647-4 0  9997,2 50202  53.2157 266.8477 0001901  47.0103 313.1048 15.08842948 42094,6917.871,95.437,541.0509999999998,538.4209999999998,0.0
50202.0,STARLINK-3256,PAYLOAD,2022-08-29 08:27:48,15.08835603,0.0001853,53.2156,262.6847,47.5481,312.5667,-1.8885e-05,-5.89e-06,0.0,0 STARLINK-3256,1 50202U 21125AY  22241.35264698 -.00000589  00000-0 -18885-4 0  9992,2 50202  53.2156 262.6847 0001853  47.5481 312.5667 15.08835603 41750,6917.894,95.438,541.0409999999998,538.477,0.0
50202.0,STARLINK-3256,PAYLOAD,2022-08-30 09:53:58,15.08840505,0.0001894,53.2155,257.9268,46.1082,314.0067,-3.5645e-05,-8.55e-06,0.0,0 STARLINK-3256,1 50202U 21125AY  22242.41248604 -.00000855  00000-0 -35645-4 0  9998,2 50202  53.2155 257.9268 0001894  46.1082 314.0067 15.08840505 42399,6917.879,95.438,541.054,538.434,0.0
50202.0,STARLINK-3256,PAYLOAD,2022-08-31 11:20:08,15.08836149,0.0002005999999999,53.2162,253.1685,44.9719,315.1435,0.00010891,1.445e-05,0.0,0 STARLINK-3256,1 50202U 21125AY  22243.47232513  .00001445  00000-0  10891-3 0  9996,2 50202  53.2162 253.1685 0002006  44.9719 315.1435 15.08836149 42072,6917.892,95.438,541.145,538.369,0.0
50202.0,STARLINK-3256,PAYLOAD,2022-09-01 09:35:33,15.08829985,0.0002073999999999,53.2157,249.0055,45.9051,314.2112,-1.2018e-05,-4.79e-06,0.0,0 STARLINK-3256,1 50202U 21125AY  22244.39969400 -.00000479  00000-0 -12018-4 0  9992,2 50202  53.2157 249.0055 0002074  45.9051 314.2112 15.08829985 42696,6917.911,95.438,541.211,538.341,0.0
50202.0,STARLINK-3256,PAYLOAD,2022-09-01 17:32:29,15.08831925,0.0002032,53.2157,247.5183,46.3791,313.7369,4.7999e-06,-2.12e-06,0.0,0 STARLINK-3256,1 50202U 21125AY  22244.73089486 -.00000212  00000-0  47999-5 0  9998,2 50202  53.2157 247.5183 0002032  46.3791 313.7369 15.08831925 42742,6917.905,95.438,541.1759999999998,538.364,0.0
50202.0,STARLINK-3256,PAYLOAD,2022-09-02 06:15:34,15.08840519,0.0001493,53.2156,245.138,65.1252,294.9895,-7.1145e-05,-1.42e-05,0.0,0 STARLINK-3256,1 50202U 21125AY  22245.26081221 -.00001420  00000-0 -71145-4 0  9998,2 50202  53.2156 245.1380 0001493  65.1252 294.9895 15.08840519 42344,6917.879,95.438,540.7769999999998,538.711,0.0
50202.0,STARLINK-3256,PAYLOAD,2022-09-02 09:26:20,15.08838487,0.0001496999999999,53.2156,244.5432,63.9824,296.1322,-4.0806e-05,-9.37e-06,0.0,0 STARLINK-3256,1 50202U 21125AY  22245.39329269 -.00000937  00000-0 -40806-4 0  9991,2 50202  53.2156 244.5432 0001497  63.9824 296.1322 15.08838487 42845,6917.885,95.438,540.786,538.714,0.0
50202.0,STARLINK-3256,PAYLOAD,2022-09-03 04:31:00,15.08737174,0.0002719,53.2152,240.9761,59.2386,300.8873,0.0014987,0.00023578,0.0,0 STARLINK-3256,1 50202U 21125AY  22246.18819771  .00023578  00000-0  14987-2 0  9994,2 50202  53.2152 240.9761 0002719  59.2386 300.8873 15.08737174 42480,6918.195,95.444,541.941,538.179,0.0
50202.0,STARLINK-3256,PAYLOAD,2022-09-03 06:06:25,15.08647045,0.000329,53.2153,240.6798,53.8619,306.2677,0.0027885,0.00044138,0.0,0 STARLINK-3256,1 50202U 21125AY  22246.25446673  .00044138  00000-0  27885-2 0  9995,2 50202  53.2153 240.6798 0003290  53.8619 306.2677 15.08647045 42492,6918.47,95.45,542.611,538.059,0.0
50202.0,STARLINK-3256,PAYLOAD,2022-09-03 17:14:03,15.08839848,0.0002072,53.2154,238.5968,49.1493,310.9679,0.00015093,2.115e-05,0.0,0 STARLINK-3256,1 50202U 21125AY  22246.71809082  .00002115  00000-0  15093-3 0  9991,2 50202  53.2154 238.5968 0002072  49.1493 310.9679 15.08839848 42569,6917.880999999999,95.438,541.179,538.312,0.0
50202.0,STARLINK-3256,PAYLOAD,2022-09-04 05:57:07,15.08846763,0.0002154999999999,53.2156,236.2182,48.8153,311.3025,0.00016607,2.356e-05,0.0,0 STARLINK-3256,1 50202U 21125AY  22247.24800649  .00002356  00000-0  16607-3 0  9999,2 50202  53.2156 236.2182 0002155  48.8153 311.3025 15.08846763 43122,6917.86,95.437,541.216,538.234,0.0
50202.0,STARLINK-3256,PAYLOAD,2022-09-05 04:12:31,15.08850953,0.0002193,53.2148,232.0552,49.8486,310.2697,0.00015478,2.177e-05,0.0,0 STARLINK-3256,1 50202U 21125AY  22248.17536417  .00002177  00000-0  15478-3 0  9997,2 50202  53.2148 232.0552 0002193  49.8486 310.2697 15.08850953 42780,6917.847,95.437,541.229,538.195,0.0
50202.0,STARLINK-3256,PAYLOAD,2022-09-05 08:58:40,15.08850649,0.0002226,53.2148,231.1632,49.4468,310.6717,0.0001356,1.871e-05,0.0,0 STARLINK-3256,1 50202U 21125AY  22248.37408277  .00001871  00000-0  13560-3 0  9991,2 50202  53.2148 231.1632 0002226  49.4468 310.6717 15.08850649 43298,6917.848000000001,95.437,541.253,538.173,0.0
50202.0,STARLINK-3256,PAYLOAD,2022-09-06 04:03:18,15.08842003,0.0002145999999999,53.215,227.5947,48.7231,311.3945,-5.5632e-05,-1.174e-05,0.0,0 STARLINK-3256,1 50202U 21125AY  22249.16896445 -.00001174  00000-0 -55632-4 0  9992,2 50202  53.2150 227.5947 0002146  48.7231 311.3945 15.08842003 42936,6917.874,95.437,541.224,538.255,0.0
50202.0,STARLINK-3256,PAYLOAD,2022-09-06 08:49:28,15.08833437,0.0002203,53.2146,226.7024,46.6907,313.4268,-0.00017403,-3.057e-05,0.0,0 STARLINK-3256,1 50202U 21125AY  22249.36768901 -.00003057  00000-0 -17403-3 0  9994,2 50202  53.2146 226.7024 0002203  46.6907 313.4268 15.08833437 43448,6917.9,95.438,541.289,538.241,0.0
50202.0,STARLINK-3256,PAYLOAD,2022-09-06 15:11:00,15.08833406,0.0002182,53.2148,225.5127,47.3254,312.7921,-0.00016128,-2.854e-05,0.0,0 STARLINK-3256,1 50202U 21125AY  22249.63264940 -.00002854  00000-0 -16128-3 0  9995,2 50202  53.2148 225.5127 0002182  47.3254 312.7921 15.08833406 43488,6917.901,95.438,541.275,538.256,0.0
50202.0,STARLINK-3256,PAYLOAD,2022-09-07 10:15:38,15.08839637,0.000213,53.216,221.9445,48.9938,311.1238,3.87e-05,3.28e-06,0.0,0 STARLINK-3256,1 50202U 21125AY  22250.42753003  .00000328  00000-0  38700-4 0  9990,2 50202  53.2160 221.9445 0002130  48.9938 311.1238 15.08839637 43604,6917.880999999999,95.438,541.22,538.273,0.0
50202.0,STARLINK-3256,PAYLOAD,2022-09-07 15:01:47,15.08841305,0.0002020999999999,53.2161,221.0524,51.7323,308.3851,5.8155e-05,6.37e-06,0.0,0 STARLINK-3256,1 50202U 21125AY  22250.62624913  .00000637  00000-0  58155-4 0  9998,2 50202  53.2161 221.0524 0002021  51.7323 308.3851 15.08841305 43630,6917.876,95.437,541.14,538.3430000000002,0.0
50202.0,STARLINK-3256,PAYLOAD,2022-09-08 10:06:26,15.08835155,0.0002863999999999,53.2161,217.4854,42.4319,317.6894,0.00011891,1.604e-05,0.0,0 STARLINK-3256,1 50202U 21125AY  22251.42113467  .00001604  00000-0  11891-3 0  9994,2 50202  53.2161 217.4854 0002864  42.4319 317.6894 15.08835155 43751,6917.895,95.438,541.741,537.779,0.0
50202.0,STARLINK-3256,PAYLOAD,2022-09-09 05:11:03,15.08842624,0.0002862,53.216,213.9172,42.4372,317.6841,0.00015057,2.109e-05,0.0,0 STARLINK-3256,1 50202U 21125AY  22252.21601215  .00002109  00000-0  15057-3 0  9994,2 50202  53.2160 213.9172 0002862  42.4372 317.6841 15.08842624 43875,6917.871999999999,95.437,541.717,537.757,0.0
50202.0,STARLINK-3256,PAYLOAD,2022-09-10 03:26:26,15.08841839,0.0001854,53.215,209.7518,53.7339,306.3824,-8.6389e-05,-1.663e-05,0.0,0 STARLINK-3256,1 50202U 21125AY  22253.14336771 -.00001663  00000-0 -86389-4 0  9992,2 50202  53.2150 209.7518 0001854  53.7339 306.3824 15.08841839 43535,6917.875,95.437,541.0219999999998,538.457,0.0
50202.0,STARLINK-3256,PAYLOAD,2022-09-10 08:12:36,15.08841614,0.0002017,53.2153,208.8599,50.0186,310.0983,-6.3328e-06,-3.89e-06,0.0,0 STARLINK-3256,1 50202U 21125AY  22253.34208830 -.00000389  00000-0 -63328-5 0  9991,2 50202  53.2153 208.8599 0002017  50.0186 310.0983 15.08841614 44045,6917.875,95.437,541.136,538.345,0.0
50202.0,STARLINK-3256,PAYLOAD,2022-09-11 08:03:23,15.08843494,0.0001978,53.2162,204.3998,49.8387,310.2778,-5.3165e-06,-3.73e-06,0.0,0 STARLINK-3256,1 50202U 21125AY  22254.33568837 -.00000373  00000-0 -53165-5 0  9998,2 50202  53.2162 204.3998 0001978  49.8387 310.2778 15.08843494 44191,6917.87,95.437,541.1030000000002,538.366,0.0
50202.0,STARLINK-3256,PAYLOAD,2022-09-12 07:54:10,15.08842296,0.0001953,53.2164,199.9396,48.8671,311.2489,0.00010631,1.404e-05,0.0,0 STARLINK-3256,1 50202U 21125AY  22255.32928643  .00001404  00000-0  10631-3 0  9996,2 50202  53.2164 199.9396 0001953  48.8671 311.2489 15.08842296 44348,6917.873000000001,95.437,541.089,538.387,0.0
